start=new Date('2022-10-07T00:00:00.000Z').valueOf();
sats=[{"PERIOD":"95.437","BSTAR":"-0.00003115400000","OBJECT_TYPE":"PAYLOAD","SEMIMAJOR_AXIS":"6917.867","TLE_LINE1":"1 50832U 22001AF  22279.63019837 -.00000784  00000-0 -31154-4 0  9991","ECCENTRICITY":"0.00017920","PERIAPSIS":"538.493","MEAN_ANOMALY":"307.5256","OBJECT_NAME":"STARLINK-3328","GP_ID":"214361154","EPHEMERIS_TYPE":"0","SITE":"AFETR","COUNTRY_CODE":"US","EPOCH":"2022-10-06T15:07:29.139168","CLASSIFICATION_TYPE":"U","FILE":"3594620","OBJECT_ID":"2022-001AF","INCLINATION":"53.2196","RA_OF_ASC_NODE":"30.8622","MEAN_ELEMENT_THEORY":"SGP4","MEAN_MOTION_DDOT":"0.0000000000000","NORAD_CAT_ID":"50832","TLE_LINE2":"2 50832  53.2196  30.8622 0001792  52.5899 307.5256 15.08844318 41559","TIME_SYSTEM":"UTC","RCS_SIZE":"LARGE","MEAN_MOTION":"15.08844318","REV_AT_EPOCH":"4155","REF_FRAME":"TEME","MEAN_MOTION_DOT":"-0.00000784","APOAPSIS":"540.972","ELEMENT_SET_NO":"999","CENTER_NAME":"EARTH","DECAY_DATE":null,"ARG_OF_PERICENTER":"52.5899","LAUNCH_DATE":"2022-01-06"},{"MEAN_MOTION":"15.08843479","RCS_SIZE":"LARGE","TIME_SYSTEM":"UTC","MEAN_MOTION_DOT":"0.00015265","REF_FRAME":"TEME","REV_AT_EPOCH":"4298","OBJECT_ID":"2022-001AG","NORAD_CAT_ID":"50833","TLE_LINE2":"2 50833  53.2193  21.0799 0001087 121.4291 238.6808 15.08843479 42985","MEAN_ELEMENT_THEORY":"SGP4","MEAN_MOTION_DDOT":"0.0000000000000","RA_OF_ASC_NODE":"21.0799","INCLINATION":"53.2193","ARG_OF_PERICENTER":"121.4291","DECAY_DATE":null,"LAUNCH_DATE":"2022-01-06","ELEMENT_SET_NO":"999","CENTER_NAME":"EARTH","APOAPSIS":"540.487","TLE_LINE1":"1 50833U 22001AG  22279.57959475  .00015265  00000-0  97500-3 0  9990","SEMIMAJOR_AXIS":"6917.870","OBJECT_TYPE":"PAYLOAD","BSTAR":"0.00097500000000","OBJECT_NAME":"STARLINK-3316","MEAN_ANOMALY":"238.6808","PERIAPSIS":"538.983","ECCENTRICITY":"0.00010870","PERIOD":"95.437","CLASSIFICATION_TYPE":"U","FILE":"3594519","EPHEMERIS_TYPE":"0","GP_ID":"214334429","EPOCH":"2022-10-06T13:54:36.986400","COUNTRY_CODE":"US","SITE":"AFETR"},{"CLASSIFICATION_TYPE":"U","FILE":"3594620","GP_ID":"214359676","EPHEMERIS_TYPE":"0","SITE":"AFETR","COUNTRY_CODE":"US","EPOCH":"2022-10-06T16:26:57.845472","OBJECT_TYPE":"PAYLOAD","BSTAR":"0.00022929000000","SEMIMAJOR_AXIS":"6917.863","TLE_LINE1":"1 50834U 22001AH  22279.68539173  .00003364  00000-0  22929-3 0  9992","PERIAPSIS":"538.434","ECCENTRICITY":"0.00018700","MEAN_ANOMALY":"315.9044","OBJECT_NAME":"STARLINK-3331","PERIOD":"95.437","DECAY_DATE":null,"ARG_OF_PERICENTER":"44.2098","LAUNCH_DATE":"2022-01-06","APOAPSIS":"541.021","ELEMENT_SET_NO":"999","CENTER_NAME":"EARTH","RCS_SIZE":"LARGE","TIME_SYSTEM":"UTC","MEAN_MOTION":"15.08845813","REV_AT_EPOCH":"4155","REF_FRAME":"TEME","MEAN_MOTION_DOT":"0.00003364","OBJECT_ID":"2022-001AH","RA_OF_ASC_NODE":"30.6154","INCLINATION":"53.2179","MEAN_ELEMENT_THEORY":"SGP4","MEAN_MOTION_DDOT":"0.0000000000000","NORAD_CAT_ID":"50834","TLE_LINE2":"2 50834  53.2179  30.6154 0001870  44.2098 315.9044 15.08845813 41555"},{"APOAPSIS":"541.031","ELEMENT_SET_NO":"999","CENTER_NAME":"EARTH","LAUNCH_DATE":"2022-01-06","ARG_OF_PERICENTER":"49.4156","DECAY_DATE":null,"MEAN_MOTION_DDOT":"0.0000000000000","MEAN_ELEMENT_THEORY":"SGP4","INCLINATION":"53.2192","RA_OF_ASC_NODE":"30.6374","TLE_LINE2":"2 50835  53.2192  30.6374 0001896  49.4156 310.7001 15.08848487 41551","NORAD_CAT_ID":"50835","OBJECT_ID":"2022-001AJ","REV_AT_EPOCH":"4155","MEAN_MOTION_DOT":"0.00000423","REF_FRAME":"TEME","MEAN_MOTION":"15.08848487","TIME_SYSTEM":"UTC","RCS_SIZE":"LARGE","COUNTRY_CODE":"US","SITE":"AFETR","EPOCH":"2022-10-06T16:16:21.933696","GP_ID":"214360927","EPHEMERIS_TYPE":"0","FILE":"3594620","CLASSIFICATION_TYPE":"U","PERIOD":"95.437","OBJECT_NAME":"STARLINK-3310","PERIAPSIS":"538.408","MEAN_ANOMALY":"310.7001","ECCENTRICITY":"0.00018960","SEMIMAJOR_AXIS":"6917.854","OBJECT_TYPE":"PAYLOAD","BSTAR":"0.00004468600000","TLE_LINE1":"1 50835U 22001AJ  22279.67803164  .00000423  00000-0  44686-4 0  9994"},{"DECAY_DATE":null,"ARG_OF_PERICENTER":"50.2879","LAUNCH_DATE":"2022-01-06","APOAPSIS":"540.992","ELEMENT_SET_NO":"999","CENTER_NAME":"EARTH","TIME_SYSTEM":"UTC","RCS_SIZE":"LARGE","MEAN_MOTION":"15.08843952","REV_AT_EPOCH":"4147","REF_FRAME":"TEME","MEAN_MOTION_DOT":"0.00000377","OBJECT_ID":"2022-001AK","RA_OF_ASC_NODE":"29.9985","INCLINATION":"53.2208","MEAN_ELEMENT_THEORY":"SGP4","MEAN_MOTION_DDOT":"0.0000000000000","TLE_LINE2":"2 50836  53.2208  29.9985 0001820  50.2879 309.8273 15.08843952 41471","NORAD_CAT_ID":"50836","CLASSIFICATION_TYPE":"U","FILE":"3594620","GP_ID":"214360655","EPHEMERIS_TYPE":"0","SITE":"AFETR","COUNTRY_CODE":"US","EPOCH":"2022-10-06T19:43:02.429760","OBJECT_TYPE":"PAYLOAD","BSTAR":"0.00004176000000","SEMIMAJOR_AXIS":"6917.868","TLE_LINE1":"1 50836U 22001AK  22279.82155590  .00000377  00000-0  41760-4 0  9993","MEAN_ANOMALY":"309.8273","PERIAPSIS":"538.474","ECCENTRICITY":"0.00018200","OBJECT_NAME":"STARLINK-3330","PERIOD":"95.437"},{"OBJECT_ID":"2022-001AL","MEAN_ELEMENT_THEORY":"SGP4","MEAN_MOTION_DDOT":"0.0000000000000","INCLINATION":"53.2187","RA_OF_ASC_NODE":"20.1906","TLE_LINE2":"2 50837  53.2187  20.1906 0001955  40.6470 319.4668 15.08838114 41719","NORAD_CAT_ID":"50837","MEAN_MOTION":"15.08838114","RCS_SIZE":"LARGE","TIME_SYSTEM":"UTC","REV_AT_EPOCH":"4171","MEAN_MOTION_DOT":"0.00000419","REF_FRAME":"TEME","APOAPSIS":"541.104","ELEMENT_SET_NO":"999","CENTER_NAME":"EARTH","ARG_OF_PERICENTER":"40.6470","DECAY_DATE":null,"LAUNCH_DATE":"2022-01-06","PERIOD":"95.438","SEMIMAJOR_AXIS":"6917.886","BSTAR":"0.00004444200000","OBJECT_TYPE":"PAYLOAD","TLE_LINE1":"1 50837U 22001AL  22279.78199413  .00000419  00000-0  44442-4 0  9998","OBJECT_NAME":"STARLINK-3318","ECCENTRICITY":"0.00019550","PERIAPSIS":"538.399","MEAN_ANOMALY":"319.4668","GP_ID":"214359926","EPHEMERIS_TYPE":"0","COUNTRY_CODE":"US","SITE":"AFETR","EPOCH":"2022-10-06T18:46:04.292832","CLASSIFICATION_TYPE":"U","FILE":"3594620"},{"OBJECT_ID":"2022-001AM","INCLINATION":"53.2187","RA_OF_ASC_NODE":"31.0470","MEAN_ELEMENT_THEORY":"SGP4","MEAN_MOTION_DDOT":"0.0000000000000","TLE_LINE2":"2 50838  53.2187  31.0470 0001948  47.0086 313.1069 15.08836522 41541","NORAD_CAT_ID":"50838","RCS_SIZE":"LARGE","TIME_SYSTEM":"UTC","MEAN_MOTION":"15.08836522","REV_AT_EPOCH":"4154","REF_FRAME":"TEME","MEAN_MOTION_DOT":"0.00001982","APOAPSIS":"541.104","CENTER_NAME":"EARTH","ELEMENT_SET_NO":"999","DECAY_DATE":null,"ARG_OF_PERICENTER":"47.0086","LAUNCH_DATE":"2022-01-06","PERIOD":"95.438","BSTAR":"0.00014263000000","OBJECT_TYPE":"PAYLOAD","SEMIMAJOR_AXIS":"6917.891","TLE_LINE1":"1 50838U 22001AM  22279.58971623  .00001982  00000-0  14263-3 0  9991","PERIAPSIS":"538.408","ECCENTRICITY":"0.00019480","MEAN_ANOMALY":"313.1069","OBJECT_NAME":"STARLINK-3322","GP_ID":"214360176","EPHEMERIS_TYPE":"0","SITE":"AFETR","COUNTRY_CODE":"US","EPOCH":"2022-10-06T14:09:11.482272","CLASSIFICATION_TYPE":"U","FILE":"3594620"},{"APOAPSIS":"541.025","CENTER_NAME":"EARTH","ELEMENT_SET_NO":"999","DECAY_DATE":null,"ARG_OF_PERICENTER":"48.1443","LAUNCH_DATE":"2022-01-06","OBJECT_ID":"2022-001AN","RA_OF_ASC_NODE":"31.2850","INCLINATION":"53.2187","MEAN_MOTION_DDOT":"0.0000000000000","MEAN_ELEMENT_THEORY":"SGP4","TLE_LINE2":"2 50839  53.2187  31.2850 0001813  48.1443 311.9704 15.08831654 42809","NORAD_CAT_ID":"50839","TIME_SYSTEM":"UTC","RCS_SIZE":"LARGE","MEAN_MOTION":"15.08831654","REV_AT_EPOCH":"4280","REF_FRAME":"TEME","MEAN_MOTION_DOT":"0.00000091","GP_ID":"214334528","EPHEMERIS_TYPE":"0","SITE":"AFETR","COUNTRY_CODE":"US","EPOCH":"2022-10-06T12:49:42.216960","CLASSIFICATION_TYPE":"U","FILE":"3594513","PERIOD":"95.438","OBJECT_TYPE":"PAYLOAD","BSTAR":"0.00002380800000","SEMIMAJOR_AXIS":"6917.906","TLE_LINE1":"1 50839U 22001AN  22279.53451640  .00000091  00000-0  23808-4 0  9995","PERIAPSIS":"538.517","MEAN_ANOMALY":"311.9704","ECCENTRICITY":"0.00018130","OBJECT_NAME":"STARLINK-3320"},{"CLASSIFICATION_TYPE":"U","FILE":"3594620","GP_ID":"214361155","EPHEMERIS_TYPE":"0","COUNTRY_CODE":"US","SITE":"AFETR","EPOCH":"2022-10-06T17:30:32.355360","SEMIMAJOR_AXIS":"6917.838","BSTAR":"0.00009708000000","OBJECT_TYPE":"PAYLOAD","TLE_LINE1":"1 50840U 22001AP  22279.72954115  .00001258  00000-0  97080-4 0  9992","OBJECT_NAME":"STARLINK-3295","PERIAPSIS":"538.486","MEAN_ANOMALY":"306.3929","ECCENTRICITY":"0.00017590","PERIOD":"95.437","ARG_OF_PERICENTER":"53.7226","DECAY_DATE":null,"LAUNCH_DATE":"2022-01-06","APOAPSIS":"540.920","CENTER_NAME":"EARTH","ELEMENT_SET_NO":"999","MEAN_MOTION":"15.08853852","TIME_SYSTEM":"UTC","RCS_SIZE":"LARGE","REV_AT_EPOCH":"4155","MEAN_MOTION_DOT":"0.00001258","REF_FRAME":"TEME","OBJECT_ID":"2022-001AP","MEAN_MOTION_DDOT":"0.0000000000000","MEAN_ELEMENT_THEORY":"SGP4","RA_OF_ASC_NODE":"30.4019","INCLINATION":"53.2200","TLE_LINE2":"2 50840  53.2200  30.4019 0001759  53.7226 306.3929 15.08853852 41557","NORAD_CAT_ID":"50840"},{"DECAY_DATE":null,"ARG_OF_PERICENTER":"38.7037","LAUNCH_DATE":"2022-01-06","APOAPSIS":"541.056","CENTER_NAME":"EARTH","ELEMENT_SET_NO":"999","RCS_SIZE":"LARGE","TIME_SYSTEM":"UTC","MEAN_MOTION":"15.08850173","REV_AT_EPOCH":"4157","REF_FRAME":"TEME","MEAN_MOTION_DOT":"0.00002533","OBJECT_ID":"2022-001AQ","INCLINATION":"53.2191","RA_OF_ASC_NODE":"30.0659","MEAN_ELEMENT_THEORY":"SGP4","MEAN_MOTION_DDOT":"0.0000000000000","TLE_LINE2":"2 50841  53.2191  30.0659 0001939  38.7037 321.4093 15.08850173 41571","NORAD_CAT_ID":"50841","CLASSIFICATION_TYPE":"U","FILE":"3594620","GP_ID":"214359427","EPHEMERIS_TYPE":"0","SITE":"AFETR","COUNTRY_CODE":"US","EPOCH":"2022-10-06T19:21:50.114592","BSTAR":"0.00017715000000","OBJECT_TYPE":"PAYLOAD","SEMIMAJOR_AXIS":"6917.849","TLE_LINE1":"1 50841U 22001AQ  22279.80683003  .00002533  00000-0  17715-3 0  9990","PERIAPSIS":"538.373","MEAN_ANOMALY":"321.4093","ECCENTRICITY":"0.00019390","OBJECT_NAME":"STARLINK-3300","PERIOD":"95.437"}];
